{"fetched_at":"2026-03-29T16:36:15Z","count":15609,"tles":[{"name":"STARLINK-34576","line1":"1 64701U 25142F   26087.91618132  .00002456  00000+0  21349-3 0  9994","line2":"2 64701  70.0002 265.8286 0002662 271.1239  88.9615 14.98336360 42351","category":"Starlink"}]}