{
  "norad_id": 64701,
  "name": "STARLINK-34576",
  "history": [
    {
      "epoch": "2026-03-28T21:59:18.066048",
      "apogee_km": 573.8863593506512,
      "perigee_km": 570.186087126599,
      "latitude_deg": 27.88600692577245,
      "longitude_deg": 18.05340672004968,
      "semi_major_axis_km": 6950.173223238625,
      "eccentricity": 0.0002662,
      "inclination_deg": 70.0002,
      "raan_deg": 265.8286,
      "arg_perigee_deg": 271.1239,
      "mean_anomaly_deg": 88.9615,
      "mean_motion_rev_day": 14.9833636
    }
  ]
}